ONEWEB-0671             
1 55830U 23029AL  24060.60559352 -.00000007  00000+0 -50237-4 0  9993
2 55830  87.9144 111.9096 0002264  92.3419 267.7973 13.19725694 48296
ONEWEB-0673             
1 55832U 23029AN  24060.58190162  .00000022  00000+0  21937-4 0  9992
2 55832  87.9143 111.8825 0002163  91.1446 268.9934 13.19727065 48295
ONEWEB-0674             
1 55833U 23029AP  24060.59094443 -.00000186  00000+0 -53497-3 0  9997
2 55833  87.8908  96.6400 0002595  93.1576 266.9851 13.14501689 49247
ONEWEB-0720             
1 55835U 23029AR  24060.58979699  .00000005  00000+0 -19466-4 0  9991
2 55835  87.9146 111.9112 0002022  81.3174 278.8188 13.19725121 48230
ONEWEB-0537             
1 56046U 23043A   24060.49215339  .00000020  00000+0  18730-4 0  9995
2 56046  87.9079  35.6766 0001577  91.3423 268.7888 13.16597811 48605
